ONEWEB-0205             
1 48226U 21031S   25300.14121557 -.00000139  00000+0 -41011-3 0  9999
2 48226  87.9018 336.1202 0001971  90.4913 269.6442 13.14504569217650
ONEWEB-0206             
1 48227U 21031T   25300.03812977 -.00000015  00000+0 -75227-4 0  9991
2 48227  87.9027 336.1268 0001773 104.3879 255.7448 13.14504141217590
ONEWEB-0182             
1 48228U 21031U   25300.03339335  .00000043  00000+0  81916-4 0  9995
2 48228  87.9008 336.1654 0001669  89.7564 270.3757 13.14502773217809
ONEWEB-0186             
1 48229U 21031V   25300.04449276 -.00000088  00000+0 -27142-3 0  9994
2 48229  87.9026 336.1321 0001916  92.7243 267.4106 13.14502151217753
ONEWEB-0181             
1 48230U 21031W   25300.17452430  .00000283  00000+0  72947-3 0  9994
2 48230  87.9007 336.1686 0002026  94.5548 265.5813 13.14503909217621
ONEWEB-0188             
1 48231U 21031X   25300.13644916 -.00000461  00000+0 -12792-2 0  9994
2 48231  87.9009 336.1716 0001833  94.5453 265.5886 13.14502558217526
ONEWEB-0220             
1 48232U 21031Y   25300.32833853  .00000250  00000+0  64064-3 0  9990
2 48232  87.9023 336.0759 0001925  87.9851 272.1499 13.14501402217812
ONEWEB-0165             
1 48233U 21031Z   25300.05241726 -.00000199  00000+0 -57141-3 0  9995
2 48233  87.9005 336.1641 0001988  92.0115 268.1242 13.14502792217738
